{"type": "FeatureCollection", "features": [ {"type": "Feature", "properties": {"norad_id": 30481, "name": "FENGYUN 1C DEB", "group": "fengyun-1c-debris", "lat": 62.10242371794774, "lon": -3.402477608343476, "alt_km": 912.2500687711718, "timestamp": "2025-12-21T14:40:48.193158+00:00", "meta": {"OBJECT_NAME": "FENGYUN 1C DEB", "OBJECT_ID": "1999-025AGT", "EPOCH": "2025-12-20T12:24:24.891264", "MEAN_MOTION": 14.39066775, "ECCENTRICITY": 0.02231417, "INCLINATION": 98.3364, "RA_OF_ASC_NODE": 11.6114, "ARG_OF_PERICENTER": 236.4824, "MEAN_ANOMALY": 279.2705, "EPHEMERIS_TYPE": 0, "CLASSIFICATION_TYPE": "U", "NORAD_CAT_ID": 30481, "ELEMENT_SET_NO": 999, "REV_AT_EPOCH": 98595, "BSTAR": 0.00033850328, "MEAN_MOTION_DOT": 1.347e-05, "MEAN_MOTION_DDOT": 0}, "tle": {"line1": "1 30481U 99025AGT 25354.51695476  .00001347  00000+0  33850-3 0  9999", "line2": "2 30481  98.3364  11.6114 0223141 236.4824 279.2705 14.39066775985953"}}, "geometry": {"type": "Point", "coordinates": [-3.402477608343476, 62.10242371794774]}}, {"type": "Feature", "properties": {"norad_id": 30489, "name": "FENGYUN 1C DEB", "group": "fengyun-1c-debris", "lat": -74.77241456007353, "lon": 156.88917679494165, "alt_km": 751.1687510665779, "timestamp": "2025-12-21T14:40:48.193168+00:00", "meta": {"OBJECT_NAME": "FENGYUN 1C DEB", "OBJECT_ID": "1999-025AHB", "EPOCH": "2025-12-21T06:45:16.303680", "MEAN_MOTION": 14.15830264, "ECCENTRICITY": 0.01390766, "INCLINATION": 98.4679, "RA_OF_ASC_NODE": 9.7551, "ARG_OF_PERICENTER": 240.2341, "MEAN_ANOMALY": 134.3227, "EPHEMERIS_TYPE": 0, "CLASSIFICATION_TYPE": "U", "NORAD_CAT_ID": 30489, "ELEMENT_SET_NO": 999, "REV_AT_EPOCH": 97508, "BSTAR": 0.00021443371, "MEAN_MOTION_DOT": 4.21e-06, "MEAN_MOTION_DDOT": 0}, "tle": {"line1": "1 30489U 99025AHB 25355.28143870  .00000421  00000+0  21443-3 0  9995", "line2": "2 30489  98.4679   9.7551 0139076 240.2341 134.3227 14.15830264975083"}}, "geometry": {"type": "Point", "coordinates": [156.88917679494165, -74.77241456007353]}}, {"type": "Feature", "properties": {"norad_id": 30490, "name": "FENGYUN 1C DEB", "group": "fengyun-1c-debris", "lat": 74.39608240833394, "lon": 96.6855742224129, "alt_km": 437.56783391634235, "timestamp": "2025-12-21T14:40:48.193178+00:00", "meta": {"OBJECT_NAME": "FENGYUN 1C DEB", "OBJECT_ID": "1999-025AHC", "EPOCH": "2025-12-21T01:47:29.080896", "MEAN_MOTION": 15.30030372, "ECCENTRICITY": 0.00454445, "INCLINATION": 98.3292, "RA_OF_ASC_NODE": 127.7248, "ARG_OF_PERICENTER": 86.729, "MEAN_ANOMALY": 273.9146, "EPHEMERIS_TYPE": 0, "CLASSIFICATION_TYPE": "U", "NORAD_CAT_ID": 30490, "ELEMENT_SET_NO": 999, "REV_AT_EPOCH": 99623, "BSTAR": 0.0024314449, "MEAN_MOTION_DOT": 0.00073457, "MEAN_MOTION_DDOT": 0}, "tle": {"line1": "1 30490U 99025AHC 25355.07464214  .00073457  00000+0  24314-2 0  9990", "line2": "2 30490  98.3292 127.7248 0045444  86.7290 273.9146 15.30030372996230"}}, "geometry": {"type": "Point", "coordinates": [96.6855742224129, 74.39608240833394]}}, {"type": "Feature", "properties": {"norad_id": 30492, "name": "FENGYUN 1C DEB", "group": "fengyun-1c-debris", "lat": 77.23659948435106, "lon": -57.86998453047632, "alt_km": 666.0093249952633, "timestamp": "2025-12-21T14:40:48.193188+00:00", "meta": {"OBJECT_NAME": "FENGYUN 1C DEB", "OBJECT_ID": "1999-025AHE", "EPOCH": "2025-12-20T18:26:42.217152", "MEAN_MOTION": 14.52033474, "ECCENTRICITY": 0.00942675, "INCLINATION": 102.3243, "RA_OF_ASC_NODE": 15.7217, "ARG_OF_PERICENTER": 41.4166, "MEAN_ANOMALY": 319.4111, "EPHEMERIS_TYPE": 0, "CLASSIFICATION_TYPE": "U", "NORAD_CAT_ID": 30492, "ELEMENT_SET_NO": 999, "REV_AT_EPOCH": 97011, "BSTAR": 0.0018252299, "MEAN_MOTION_DOT": 7.741e-05, "MEAN_MOTION_DDOT": 0}, "tle": {"line1": "1 30492U 99025AHE 25354.76854418  .00007741  00000+0  18252-2 0  9993", "line2": "2 30492 102.3243  15.7217 0094267  41.4166 319.4111 14.52033474970119"}}, "geometry": {"type": "Point", "coordinates": [-57.86998453047632, 77.23659948435106]}}, {"type": "Feature", "properties": {"norad_id": 30493, "name": "FENGYUN 1C DEB", "group": "fengyun-1c-debris", "lat": -34.643609062982534, "lon": -168.72416586122762, "alt_km": 1012.5229885521494, "timestamp": "2025-12-21T14:40:48.193198+00:00", "meta": {"OBJECT_NAME": "FENGYUN 1C DEB", "OBJECT_ID": "1999-025AHF", "EPOCH": "2025-12-20T11:25:06.698208", "MEAN_MOTION": 13.93021799, "ECCENTRICITY": 0.01807889, "INCLINATION": 98.5707, "RA_OF_ASC_NODE": 184.2419, "ARG_OF_PERICENTER": 195.3547, "MEAN_ANOMALY": 194.8623, "EPHEMERIS_TYPE": 0, "CLASSIFICATION_TYPE": "U", "NORAD_CAT_ID": 30493, "ELEMENT_SET_NO": 999, "REV_AT_EPOCH": 95203, "BSTAR": 0.0021072549, "MEAN_MOTION_DOT": 3.094e-05, "MEAN_MOTION_DDOT": 0}, "tle": {"line1": "1 30493U 99025AHF 25354.47577197  .00003094  00000+0  21073-2 0  9990", "line2": "2 30493  98.5707 184.2419 0180788 195.3547 194.8623 13.93021799952038"}}, "geometry": {"type": "Point", "coordinates": [-168.72416586122762, -34.643609062982534]}}, {"type": "Feature", "properties": {"norad_id": 30494, "name": "FENGYUN 1C DEB", "group": "fengyun-1c-debris", "lat": 13.062473317056051, "lon": -147.0066748770512, "alt_km": 850.5376742898325, "timestamp": "2025-12-21T14:40:48.193210+00:00", "meta": {"OBJECT_NAME": "FENGYUN 1C DEB", "OBJECT_ID": "1999-025AHG", "EPOCH": "2025-12-20T20:27:26.731008", "MEAN_MOTION": 13.79394652, "ECCENTRICITY": 0.0186172, "INCLINATION": 99.2815, "RA_OF_ASC_NODE": 30.0747, "ARG_OF_PERICENTER": 200.8117, "MEAN_ANOMALY": 158.5384, "EPHEMERIS_TYPE": 0, "CLASSIFICATION_TYPE": "U", "NORAD_CAT_ID": 30494, "ELEMENT_SET_NO": 999, "REV_AT_EPOCH": 94598, "BSTAR": 0.0010376, "MEAN_MOTION_DOT": 1.17e-05, "MEAN_MOTION_DDOT": 0}, "tle": {"line1": "1 30494U 99025AHG 25354.85239272  .00001170  00000+0  10376-2 0  9999", "line2": "2 30494  99.2815  30.0747 0186172 200.8117 158.5384 13.79394652945989"}}, "geometry": {"type": "Point", "coordinates": [-147.0066748770512, 13.062473317056051]}}, {"type": "Feature", "properties": {"norad_id": 30495, "name": "FENGYUN 1C DEB", "group": "fengyun-1c-debris", "lat": -18.2728132976926, "lon": 89.57490344109317, "alt_km": 1284.1140612938816, "timestamp": "2025-12-21T14:40:48.193220+00:00", "meta": {"OBJECT_NAME": "FENGYUN 1C DEB", "OBJECT_ID": "1999-025AHH", "EPOCH": "2025-12-20T23:56:19.457952", "MEAN_MOTION": 12.94414774, "ECCENTRICITY": 0.05976213, "INCLINATION": 102.2602, "RA_OF_ASC_NODE": 84.7699, "ARG_OF_PERICENTER": 249.7981, "MEAN_ANOMALY": 103.7903, "EPHEMERIS_TYPE": 0, "CLASSIFICATION_TYPE": "U", "NORAD_CAT_ID": 30495, "ELEMENT_SET_NO": 999, "REV_AT_EPOCH": 88780, "BSTAR": 0.002688562, "MEAN_MOTION_DOT": 1.631e-05, "MEAN_MOTION_DDOT": 0}, "tle": {"line1": "1 30495U 99025AHH 25354.99744743  .00001631  00000+0  26886-2 0  9994", "line2": "2 30495 102.2602  84.7699 0597621 249.7981 103.7903 12.94414774887806"}}, "geometry": {"type": "Point", "coordinates": [89.57490344109317, -18.2728132976926]}}, {"type": "Feature", "properties": {"norad_id": 30496, "name": "FENGYUN 1C DEB", "group": "fengyun-1c-debris", "lat": 73.72276813885492, "lon": 114.47943537085213, "alt_km": 502.50684026880026, "timestamp": "2025-12-21T14:40:48.193230+00:00", "meta": {"OBJECT_NAME": "FENGYUN 1C DEB", "OBJECT_ID": "1999-025AHJ", "EPOCH": "2025-12-20T06:05:15.427392", "MEAN_MOTION": 14.94355955, "ECCENTRICITY": 0.0130213, "INCLINATION": 98.7847, "RA_OF_ASC_NODE": 260.9818, "ARG_OF_PERICENTER": 73.2308, "MEAN_ANOMALY": 288.3149, "EPHEMERIS_TYPE": 0, "CLASSIFICATION_TYPE": "U", "NORAD_CAT_ID": 30496, "ELEMENT_SET_NO": 999, "REV_AT_EPOCH": 1256, "BSTAR": 0.0003374109, "MEAN_MOTION_DOT": 4.215e-05, "MEAN_MOTION_DDOT": 0}, "tle": {"line1": "1 30496U 99025AHJ 25354.25365078  .00004215  00000+0  33741-3 0  9994", "line2": "2 30496  98.7847 260.9818 0130213  73.2308 288.3149 14.94355955 12563"}}, "geometry": {"type": "Point", "coordinates": [114.47943537085213, 73.72276813885492]}}, {"type": "Feature", "properties": {"norad_id": 30498, "name": "FENGYUN 1C DEB", "group": "fengyun-1c-debris", "lat": -68.19467791190104, "lon": 70.91850055600767, "alt_km": 949.8365311521584, "timestamp": "2025-12-21T14:40:48.193240+00:00", "meta": {"OBJECT_NAME": "FENGYUN 1C DEB", "OBJECT_ID": "1999-025AHL", "EPOCH": "2025-12-21T01:40:18.075360", "MEAN_MOTION": 14.06111427, "ECCENTRICITY": 0.01040045, "INCLINATION": 99.2381, "RA_OF_ASC_NODE": 46.3622, "ARG_OF_PERICENTER": 133.1817, "MEAN_ANOMALY": 294.0695, "EPHEMERIS_TYPE": 0, "CLASSIFICATION_TYPE": "U", "NORAD_CAT_ID": 30498, "ELEMENT_SET_NO": 999, "REV_AT_EPOCH": 95886, "BSTAR": 0.0011567783, "MEAN_MOTION_DOT": 1.95e-05, "MEAN_MOTION_DDOT": 0}, "tle": {"line1": "1 30498U 99025AHL 25355.06965365  .00001950  00000+0  11568-2 0  9996", "line2": "2 30498  99.2381  46.3622 0104004 133.1817 294.0695 14.06111427958862"}}, "geometry": {"type": "Point", "coordinates": [70.91850055600767, -68.19467791190104]}}, {"type": "Feature", "properties": {"norad_id": 30500, "name": "FENGYUN 1C DEB", "group": "fengyun-1c-debris", "lat": 38.273662310164866, "lon": 80.16206650286351, "alt_km": 776.2433830619211, "timestamp": "2025-12-21T14:40:48.193250+00:00", "meta": {"OBJECT_NAME": "FENGYUN 1C DEB", "OBJECT_ID": "1999-025AHN", "EPOCH": "2025-12-20T23:35:55.754016", "MEAN_MOTION": 14.25278458, "ECCENTRICITY": 0.00637958, "INCLINATION": 99.0725, "RA_OF_ASC_NODE": 86.7551, "ARG_OF_PERICENTER": 92.7547, "MEAN_ANOMALY": 324.3123, "EPHEMERIS_TYPE": 0, "CLASSIFICATION_TYPE": "U", "NORAD_CAT_ID": 30500, "ELEMENT_SET_NO": 999, "REV_AT_EPOCH": 96799, "BSTAR": 0.001602256, "MEAN_MOTION_DOT": 3.807e-05, "MEAN_MOTION_DDOT": 0}, "tle": {"line1": "1 30500U 99025AHN 25354.98328419  .00003807  00000+0  16023-2 0  9997", "line2": "2 30500  99.0725  86.7551 0063795  92.7547 324.3123 14.25278458967992"}}, "geometry": {"type": "Point", "coordinates": [80.16206650286351, 38.273662310164866]}}]}